[{"OBJECT_NAME":"STPSAT-5","OBJECT_ID":"2018-099E","EPOCH":"2026-03-09T17:03:28.111392","MEAN_MOTION":15.12747444,"ECCENTRICITY":0.00022983,"INCLINATION":97.4221,"RA_OF_ASC_NODE":121.2038,"ARG_OF_PERICENTER":348.2431,"MEAN_ANOMALY":11.8746,"EPHEMERIS_TYPE":0,"CLASSIFICATION_TYPE":"U","NORAD_CAT_ID":43762,"ELEMENT_SET_NO":999,"REV_AT_EPOCH":39782,"BSTAR":0.00030771004,"MEAN_MOTION_DOT":5.331e-5,"MEAN_MOTION_DDOT":0},{"OBJECT_NAME":"STARLINK-3289","OBJECT_ID":"2021-125T","EPOCH":"2026-03-09T17:10:28.179552","MEAN_MOTION":15.10198828,"ECCENTRICITY":0.00010063,"INCLINATION":53.215,"RA_OF_ASC_NODE":238.9259,"ARG_OF_PERICENTER":143.9291,"MEAN_ANOMALY":216.177,"EPHEMERIS_TYPE":0,"CLASSIFICATION_TYPE":"U","NORAD_CAT_ID":50173,"ELEMENT_SET_NO":999,"REV_AT_EPOCH":23675,"BSTAR":0.0016796134,"MEAN_MOTION_DOT":0.00027564,"MEAN_MOTION_DDOT":0}]
